OBJECT_NAME,OBJECT_ID,EPOCH,MEAN_MOTION,ECCENTRICITY,INCLINATION,RA_OF_ASC_NODE,ARG_OF_PERICENTER,MEAN_ANOMALY,EPHEMERIS_TYPE,CLASSIFICATION_TYPE,NORAD_CAT_ID,ELEMENT_SET_NO,REV_AT_EPOCH,BSTAR,MEAN_MOTION_DOT,MEAN_MOTION_DDOT
STARLINK-31837,2024-183F,2026-06-08T00:38:16.618272,15.30189465,0.00014084000000000001,53.1605,82.8205,82.6528,277.4632,0,U,61514,999,9348,-8.717307300000001e-05,-2.939e-05,0.0
STARLINK-32136,2024-183G,2026-06-07T22:36:53.849088,15.31699628,0.00012613000000000001,53.1611,83.0245,93.7452,266.3693,0,U,61515,999,9347,-4.950847500000001e-05,-1.9010000000000003e-05,0.0
STARLINK-32047,2024-183H,2026-06-08T01:11:12.632064,15.31699452,0.00015738000000000001,53.1614,82.2582,76.6382,283.4795,0,U,61516,999,9349,-5.4934095000000006e-05,-2.0700000000000002e-05,0.0
STARLINK-31756,2024-183J,2026-06-08T01:32:57.377472,15.30294474,0.00018531,53.1606,83.0094,102.6101,257.5107,0,U,61517,999,9348,-0.00064861351,-0.00019577,0.0
STARLINK-32172,2024-183K,2026-06-08T02:38:27.235680,15.31695841,0.00017728,53.1597,81.9221,104.3286,255.7913,0,U,61518,999,9350,-2.6155292e-05,-1.177e-05,0.0
STARLINK-32338,2024-183L,2026-06-08T02:20:47.181120,15.49312035,7.888e-05,53.1611,78.2872,75.1332,284.9765,0,U,61519,999,9355,4.2148799e-05,1.8970000000000003e-05,0.0
STARLINK-32306,2024-183M,2026-06-08T01:31:21.881280,15.31738439,0.00011449,53.1622,82.3398,96.5835,263.5296,0,U,61520,999,9349,-0.00028995153,-9.362000000000002e-05,0.0
STARLINK-32297,2024-183N,2026-06-08T01:43:26.253696,15.30203409,0.00015292,53.1609,82.3916,103.406,256.7111,0,U,61521,999,9349,-3.9957167e-05,-1.5430000000000003e-05,0.0
STARLINK-32260,2024-183P,2026-06-08T01:28:07.156416,15.31626961,0.00015429000000000002,53.1584,82.3211,138.6831,221.4287,0,U,61522,999,9349,0.0017337736,0.00053701,0.0
STARLINK-32305,2024-183Q,2026-06-08T02:26:00.019968,15.30189048,0.00013429,53.1605,82.5788,94.1564,265.959,0,U,61523,999,9349,-1.6662782e-05,-8.52e-06,0.0
STARLINK-32296,2024-183R,2026-06-08T02:25:00.340896,15.31699149,0.00012654,53.1621,81.8614,97.5239,262.5906,0,U,61524,999,9350,1.3535459999999998e-06,-3.23e-06,0.0
STARLINK-32298,2024-183S,2026-06-08T01:17:56.904576,15.31680188,0.00012034,53.159,82.2802,59.1187,300.9933,0,U,61525,999,9349,-7.023898e-05,-2.5430000000000002e-05,0.0
STARLINK-32293,2024-183T,2026-06-08T01:25:22.331136,15.30185376,0.00012119999999999999,53.1603,83.0168,96.6191,263.4947,0,U,61526,999,9348,2.2602692e-05,3.1e-06,0.0
STARLINK-32313,2024-183U,2026-06-08T01:16:15.634272,15.30185696,0.00012733000000000002,53.1604,82.9779,88.2563,271.8583,0,U,61527,999,9348,-1.9523158e-05,-9.369999999999998e-06,0.0
STARLINK-32319,2024-183V,2026-06-08T01:23:51.518688,15.30190922,0.00010378,53.1596,83.0082,95.312,264.7999,0,U,61528,999,9348,-4.1793722e-05,-1.5960000000000003e-05,0.0
STARLINK-32351,2024-183W,2026-06-08T00:32:47.246784,15.30185921,5.432000000000001e-05,53.1616,79.9711,90.0973,270.009,0,U,61529,999,9352,-4.0447415e-05,-1.556e-05,0.0
STARLINK-32261,2024-183X,2026-06-08T00:17:34.842048,15.31695723,0.00015319000000000002,53.1628,82.7505,105.2627,254.8544,0,U,61530,999,9348,-1.2609678e-05,-7.5699999999999995e-06,0.0
STARLINK-32358,2024-183Y,2026-06-08T01:19:14.209248,15.49328376,0.00011432,53.1624,78.7451,109.5028,250.6105,0,U,61531,999,9354,6.186674e-06,-1.04e-06,0.0
STARLINK-11354 [DTC],2024-184A,2026-06-08T05:04:35.724576,15.69697146,7.406e-05,53.1584,150.1134,103.7394,256.3707,0,U,61532,999,9463,-2.0387853e-05,-3.0560000000000006e-05,0.0
STARLINK-11323 [DTC],2024-184B,2026-06-08T04:50:26.976768,15.69723733,8.129e-05,53.1572,150.0436,44.6779,315.4304,0,U,61533,999,9463,2.3395200000000003e-07,-5.6e-06,0.0
STARLINK-11338 [DTC],2024-184C,2026-06-08T04:57:30.938112,15.69716718,5.1830000000000004e-05,53.1572,150.0791,92.8938,267.2139,0,U,61534,999,9463,8.169589999999999e-07,-4.89e-06,0.0
STARLINK-11362 [DTC],2024-184D,2026-06-08T04:36:19.974240,15.69715598,0.00013203,53.1574,149.9823,104.5184,255.598,0,U,61535,999,9463,1.629309e-05,1.3860000000000003e-05,0.0
STARLINK-11295 [DTC],2024-184E,2026-06-08T04:43:23.543328,15.69710915,0.00010709,53.157,150.0053,83.974,276.14,0,U,61536,999,9463,1.0659448000000001e-05,7.03e-06,0.0
STARLINK-11325 [DTC],2024-184G,2026-06-08T05:53:53.217312,15.69707249,0.00018002,53.1591,149.6018,82.7345,277.3878,0,U,61538,999,9464,-3.2131139999999997e-06,-9.79e-06,0.0
STARLINK-11332 [DTC],2024-184H,2026-06-08T05:46:49.585152,15.69705263,7.881000000000001e-05,53.159,149.5903,71.9806,288.1297,0,U,61539,999,9464,1.6259260000000003e-05,1.3820000000000002e-05,0.0
STARLINK-11350 [DTC],2024-184J,2026-06-08T05:39:47.502144,15.69692459,0.00010354,53.1588,149.5354,98.1772,261.9363,0,U,61540,999,9464,-2.1666543e-05,-3.21e-05,0.0
STARLINK-11357 [DTC],2024-184K,2026-06-08T05:32:50.489088,15.69713574,0.00011693000000000001,53.1582,150.2342,45.7827,314.3287,0,U,61541,999,9463,7.93564e-07,-4.929999999999999e-06,0.0
STARLINK-11322 [DTC],2024-184L,2026-06-08T05:25:47.586144,15.69707162,0.00012086,53.1586,150.2057,109.6234,250.4914,0,U,61542,999,9569,1.3926270000000002e-05,1.0980000000000002e-05,0.0
