STARLINK-31837          
1 61514U 24183F   26159.02658123 -.00002939  00000+0 -87173-4 0  9999
2 61514  53.1605  82.8205 0001408  82.6528 277.4632 15.30189465 93485
STARLINK-32136          
1 61515U 24183G   26158.94228992 -.00001901  00000+0 -49508-4 0  9995
2 61515  53.1611  83.0245 0001261  93.7452 266.3693 15.31699628 93477
STARLINK-32047          
1 61516U 24183H   26159.04945176 -.00002070  00000+0 -54934-4 0  9995
2 61516  53.1614  82.2582 0001573  76.6382 283.4795 15.31699452 93494
STARLINK-31756          
1 61517U 24183J   26159.06455298 -.00019577  00000+0 -64861-3 0  9998
2 61517  53.1606  83.0094 0001853 102.6101 257.5107 15.30294474 93485
STARLINK-32172          
1 61518U 24183K   26159.11003745 -.00001177  00000+0 -26155-4 0  9993
2 61518  53.1597  81.9221 0001772 104.3286 255.7913 15.31695841 93509
STARLINK-32338          
1 61519U 24183L   26159.09776830  .00001897  00000+0  42149-4 0  9991
2 61519  53.1611  78.2872 0000788  75.1332 284.9765 15.49312035 93555
STARLINK-32306          
1 61520U 24183M   26159.06344770 -.00009362  00000+0 -28995-3 0  9993
2 61520  53.1622  82.3398 0001144  96.5835 263.5296 15.31738439 93496
STARLINK-32297          
1 61521U 24183N   26159.07183164 -.00001543  00000+0 -39957-4 0  9997
2 61521  53.1609  82.3916 0001529 103.4060 256.7111 15.30203409 93496
STARLINK-32260          
1 61522U 24183P   26159.06119394  .00053701  00000+0  17338-2 0  9999
2 61522  53.1584  82.3211 0001542 138.6831 221.4287 15.31626961 93494
STARLINK-32305          
1 61523U 24183Q   26159.10138912 -.00000852  00000+0 -16663-4 0  9995
2 61523  53.1605  82.5788 0001342  94.1564 265.9590 15.30189048 93496
STARLINK-32296          
1 61524U 24183R   26159.10069839 -.00000323  00000+0  13535-5 0  9995
2 61524  53.1621  81.8614 0001265  97.5239 262.5906 15.31699149 93500
STARLINK-32298          
1 61525U 24183S   26159.05413084 -.00002543  00000+0 -70239-4 0  9995
2 61525  53.1590  82.2802 0001203  59.1187 300.9933 15.31680188 93496
STARLINK-32293          
1 61526U 24183T   26159.05928624  .00000310  00000+0  22603-4 0  9997
2 61526  53.1603  83.0168 0001212  96.6191 263.4947 15.30185376 93482
STARLINK-32313          
1 61527U 24183U   26159.05295873 -.00000937  00000+0 -19523-4 0  9995
2 61527  53.1604  82.9779 0001273  88.2563 271.8583 15.30185696 93481
STARLINK-32319          
1 61528U 24183V   26159.05823517 -.00001596  00000+0 -41794-4 0  9995
2 61528  53.1596  83.0082 0001037  95.3120 264.7999 15.30190922 93487
STARLINK-32351          
1 61529U 24183W   26159.02276906 -.00001556  00000+0 -40447-4 0  9997
2 61529  53.1616  79.9711 0000543  90.0973 270.0090 15.30185921 93523
STARLINK-32261          
1 61530U 24183X   26159.01220882 -.00000757  00000+0 -12610-4 0  9993
2 61530  53.1628  82.7505 0001531 105.2627 254.8544 15.31695723 93480
STARLINK-32358          
1 61531U 24183Y   26159.05502557 -.00000104  00000+0  61867-5 0  9994
2 61531  53.1624  78.7451 0001143 109.5028 250.6105 15.49328376 93543
STARLINK-11354 [DTC]    
1 61532U 24184A   26159.21152459 -.00003056  00000+0 -20388-4 0  9998
2 61532  53.1584 150.1134 0000740 103.7394 256.3707 15.69697146 94634
STARLINK-11323 [DTC]    
1 61533U 24184B   26159.20170112 -.00000560  00000+0  23395-6 0  9993
2 61533  53.1572 150.0436 0000812  44.6779 315.4304 15.69723733 94638
STARLINK-11338 [DTC]    
1 61534U 24184C   26159.20660808 -.00000489  00000+0  81696-6 0  9998
2 61534  53.1572 150.0791 0000518  92.8938 267.2139 15.69716718 94633
STARLINK-11362 [DTC]    
1 61535U 24184D   26159.19189785  .00001386  00000+0  16293-4 0  9992
2 61535  53.1574 149.9823 0001320 104.5184 255.5980 15.69715598 94634
STARLINK-11295 [DTC]    
1 61536U 24184E   26159.19680027  .00000703  00000+0  10659-4 0  9990
2 61536  53.1570 150.0053 0001070  83.9740 276.1400 15.69710915 94633
STARLINK-11325 [DTC]    
1 61538U 24184G   26159.24575483 -.00000979  00000+0 -32131-5 0  9994
2 61538  53.1591 149.6018 0001800  82.7345 277.3878 15.69707249 94641
STARLINK-11332 [DTC]    
1 61539U 24184H   26159.24085168  .00001382  00000+0  16259-4 0  9990
2 61539  53.1590 149.5903 0000788  71.9806 288.1297 15.69705263 94648
STARLINK-11350 [DTC]    
1 61540U 24184J   26159.23596646 -.00003210  00000+0 -21667-4 0  9992
2 61540  53.1588 149.5354 0001035  98.1772 261.9363 15.69692459 94641
STARLINK-11357 [DTC]    
1 61541U 24184K   26159.23113992 -.00000493  00000+0  79356-6 0  9991
2 61541  53.1582 150.2342 0001169  45.7827 314.3287 15.69713574 94638
STARLINK-11322 [DTC]    
1 61542U 24184L   26159.22624521  .00001098  00000+0  13926-4 0  9996
2 61542  53.1586 150.2057 0001208 109.6234 250.4914 15.69707162 95692
